name,gu,address,longitude,latitude,_id,guId,,,,,
청담동,강남구,강남구 청담동,127.052135,37.52540984,63445ab0adb5727d4d008290,63441486be26106c41c6d732,,,,,
개포동,강남구,강남구 개포동,127.0617889,37.48242715,63445ab0adb5727d4d008291,63441486be26106c41c6d732,,,,,
역삼동,강남구,강남구 역삼동,127.0392152,37.49927697,63445ab0adb5727d4d008292,63441486be26106c41c6d732,,,,,
대치동,강남구,강남구 대치동,127.0657834,37.49885733,63445ab0adb5727d4d008293,63441486be26106c41c6d732,,,,,
삼성동,강남구,강남구 삼성동,127.0552961,37.51467025,63445ab0adb5727d4d008294,63441486be26106c41c6d732,,,,,
신사동,강남구,강남구 신사동,127.0227218,37.52881009,63445ab0adb5727d4d008295,63441486be26106c41c6d732,,,,name,동 이름
논현동,강남구,강남구 논현동,127.0312604,37.51415029,63445ab0adb5727d4d008296,63441486be26106c41c6d732,,,,gu,해당되는 자치구
압구정동,강남구,강남구 압구정동,127.0286102,37.5227125,63445ab0adb5727d4d008297,63441486be26106c41c6d732,,,,address,gu+name (위도 경도 검색용)
세곡동,강남구,강남구 세곡동,127.1114976,37.47170903,63445ab0adb5727d4d008298,63441486be26106c41c6d732,,,,longitude,경도
자곡동,강남구,강남구 자곡동,127.1015431,37.4765826,63445ab0adb5727d4d008299,63441486be26106c41c6d732,,,,latitude,위도
수서동,강남구,강남구 수서동,127.0983199,37.48551756,63445ab0adb5727d4d00829a,63441486be26106c41c6d732,,,,_id,해당 동 ObjectId
일원동,강남구,강남구 일원동,127.0827589,37.48789678,63445ab0adb5727d4d00829b,63441486be26106c41c6d732,,,,guId,해당되는 구 ObjectId
율현동,강남구,강남구 율현동,127.1114976,37.47170903,63445ab0adb5727d4d00829c,63441486be26106c41c6d732,,,,,
도곡동,강남구,강남구 도곡동,127.0443863,37.48785567,63445ab0adb5727d4d00829d,63441486be26106c41c6d732,,,,master 자료인만큼 DB에 같은 필드들로 들어가 있진 않음. 아래의 다큐멘트 이미지 참고. (API 공유예정),
고덕동,강동구,강동구 고덕동,127.1558632,37.56554267,63445ab0adb5727d4d00829e,6344186cbe26106c41c6d733,,,,,
명일동,강동구,강동구 명일동,127.1498051,37.5484065,63445ab0adb5727d4d00829f,6344186cbe26106c41c6d733,,,,,
길동,강동구,강동구 길동,127.1464359,37.53968838,63445ab0adb5727d4d0082a0,6344186cbe26106c41c6d733,,,,,
상일동,강동구,강동구 상일동,127.1696708,37.55083625,63445ab0adb5727d4d0082a1,6344186cbe26106c41c6d733,,,,,
둔촌동,강동구,강동구 둔촌동,127.1448377,37.52895416,63445ab0adb5727d4d0082a2,6344186cbe26106c41c6d733,,,,,
암사동,강동구,강동구 암사동,127.1301647,37.55775749,63445ab0adb5727d4d0082a3,6344186cbe26106c41c6d733,,,,,
미아동,강북구,강북구 미아동,127.0209401,37.62191076,63445ab0adb5727d4d0082a4,6344186cbe26106c41c6d733,,,,,
강일동,강동구,강동구 강일동,127.1696708,37.55083625,63445ab0adb5727d4d0082a5,6344186cbe26106c41c6d733,,,,,
천호동,강동구,강동구 천호동,127.127541,37.54312229,63445ab0adb5727d4d0082a6,6344186cbe26106c41c6d733,,,,,
번동,강북구,강북구 번동,127.0375597,37.62920563,63445ab0adb5727d4d0082a7,6344187ebe26106c41c6d734,,,,,
수유동,강북구,강북구 수유동,127.0048047,37.6370593,63445ab0adb5727d4d0082a8,6344187ebe26106c41c6d734,,,,,
성내동,강동구,강동구 성내동,127.128886,37.53044457,63445ab0adb5727d4d0082a9,6344187ebe26106c41c6d734,,,,,
우이동,강북구,강북구 우이동,127.0048047,37.6370593,63445ab0adb5727d4d0082aa,6344187ebe26106c41c6d734,,,,,
염창동,강서구,강서구 염창동,126.8498191,37.56794968,63445ab0adb5727d4d0082ab,63441a3ebe26106c41c6d735,,,,,
등촌동,강서구,강서구 등촌동,126.8615517,37.55196261,63445ab0adb5727d4d0082ac,63441a3ebe26106c41c6d735,,,,,
화곡동,강서구,강서구 화곡동,126.8441304,37.54216688,63445ab0adb5727d4d0082ad,63441a3ebe26106c41c6d735,,,,,
외발산동,강서구,강서구 외발산동,126.8169757,37.54871814,63445ab0adb5727d4d0082ae,63441a3ebe26106c41c6d735,,,,,
내발산동,강서구,강서구 내발산동,126.833258,37.55282787,63445ab0adb5727d4d0082af,63441a3ebe26106c41c6d735,,,,,
마곡동,강서구,강서구 마곡동,126.8302779,37.57010337,63445ab0adb5727d4d0082b0,63441a3ebe26106c41c6d735,,,,,
공항동,강서구,강서구 공항동,126.7874588,37.56622445,63445ab0adb5727d4d0082b1,63441a3ebe26106c41c6d735,,,,,
방화동,강서구,강서구 방화동,126.8134485,37.57731978,63445ab0adb5727d4d0082b2,63441a3ebe26106c41c6d735,,,,,
가양동,강서구,강서구 가양동,126.8498191,37.56794968,63445ab0adb5727d4d0082b3,63441a3ebe26106c41c6d735,,,,,
개화동,강서구,강서구 개화동,126.8064634,37.58660444,63445ab0adb5727d4d0082b4,63441a3ebe26106c41c6d735,,,,,
과해동,강서구,강서구 과해동,126.7874588,37.56622445,63445ab0adb5727d4d0082b5,63441a3ebe26106c41c6d735,,,,,
오곡동,강서구,강서구 오곡동,126.7841439,37.55339601,63445ab0adb5727d4d0082b6,63441a3ebe26106c41c6d735,,,,,
중곡동,광진구,광진구 중곡동,127.0875674,37.56301712,63445ab0adb5727d4d0082b7,63441a3ebe26106c41c6d735,,,,,
오쇠동,강서구,강서구 오쇠동,126.7995359,37.54356028,63445ab0adb5727d4d0082b8,63441a58be26106c41c6d736,,,,,
남현동,관악구,관악구 남현동,126.9799613,37.46306021,63445ab0adb5727d4d0082b9,63441a58be26106c41c6d736,,,,,
능동,광진구,광진구 능동,127.0826352,37.55113576,63445ab0adb5727d4d0082ba,63441a58be26106c41c6d736,,,,,
신림동,관악구,관악구 신림동,126.9346071,37.4630596,63445ab0adb5727d4d0082bb,63441a67be26106c41c6d737,,,,,
구의동,광진구,광진구 구의동,127.0873332,37.54355331,63445ab0adb5727d4d0082bc,63441a67be26106c41c6d737,,,,,
봉천동,관악구,관악구 봉천동,126.9569915,37.47505523,63445ab0adb5727d4d0082bd,63441a67be26106c41c6d737,,,,,
광장동,광진구,광진구 광장동,127.1047856,37.54773181,63445ab0adb5727d4d0082be,63441a67be26106c41c6d737,,,,,
자양동,광진구,광진구 자양동,127.0750916,37.53243087,63445ab0adb5727d4d0082bf,63441a67be26106c41c6d737,,,,,
화양동,광진구,광진구 화양동,127.0730799,37.54361035,63445ab0adb5727d4d0082c0,63441a67be26106c41c6d737,,,,,
군자동,광진구,광진구 군자동,127.073825,37.55327456,63445ab0adb5727d4d0082c1,63441a67be26106c41c6d737,,,,,
고척동,구로구,구로구 고척동,126.8629495,37.50242997,63445ab0adb5727d4d0082c2,63441a94be26106c41c6d738,,,,,
가리봉동,구로구,구로구 가리봉동,126.8880273,37.4830544,63445ab0adb5727d4d0082c3,63441a94be26106c41c6d738,,,,,
개봉동,구로구,구로구 개봉동,126.8560503,37.49466652,63445ab0adb5727d4d0082c4,63441a94be26106c41c6d738,,,,,
구로동,구로구,구로구 구로동,126.8824861,37.49372768,63445ab0adb5727d4d0082c5,63441a94be26106c41c6d738,,,,,
오류동,구로구,구로구 오류동,126.8382937,37.49221966,63445ab0adb5727d4d0082c6,63441a94be26106c41c6d738,,,,,
온수동,구로구,구로구 온수동,126.8207514,37.49366905,63445ab0adb5727d4d0082c7,63441a94be26106c41c6d738,,,,,
신도림동,구로구,구로구 신도림동,126.8829518,37.51059452,63445ab0adb5727d4d0082c8,63441a94be26106c41c6d738,,,,,
궁동,구로구,구로구 궁동,126.8278251,37.50100162,63445ab0adb5727d4d0082c9,63441a94be26106c41c6d738,,,,,
천왕동,구로구,구로구 천왕동,126.8391716,37.48112616,63445ab0adb5727d4d0082ca,63441a94be26106c41c6d738,,,,,
항동,구로구,구로구 항동,126.8259374,37.48108349,63445ab0adb5727d4d0082cb,63441a94be26106c41c6d738,,,,,
월계동,노원구,노원구 월계동,127.0540225,37.62955716,63445ab0adb5727d4d0082cc,63441aa3be26106c41c6d739,,,,,
공릉동,노원구,노원구 공릉동,127.087394,37.63043446,63445ab0adb5727d4d0082cd,63441aa3be26106c41c6d739,,,,,
하계동,노원구,노원구 하계동,127.0740419,37.63846269,63445ab0adb5727d4d0082ce,63441aa3be26106c41c6d739,,,,,
중계동,노원구,노원구 중계동,127.0811684,37.65094633,63445ab0adb5727d4d0082cf,63441b80be26106c41c6d73a,,,,,
시흥동,금천구,금천구 시흥동,126.9118592,37.44964285,63445ab0adb5727d4d0082d0,63441b80be26106c41c6d73a,,,,,
상계동,노원구,노원구 상계동,127.0722769,37.66636668,63445ab0adb5727d4d0082d1,63441b80be26106c41c6d73a,,,,,
독산동,금천구,금천구 독산동,126.9007561,37.46643569,63445ab0adb5727d4d0082d2,63441b80be26106c41c6d73a,,,,,
쌍문동,도봉구,도봉구 쌍문동,127.024788,37.65254664,63445ab0adb5727d4d0082d3,63441b80be26106c41c6d73a,,,,,
방학동,도봉구,도봉구 방학동,127.0332898,37.66465347,63445ab0adb5727d4d0082d4,63441b91be26106c41c6d73b,,,,,
가산동,금천구,금천구 가산동,126.8865564,37.47548176,63445ab0adb5727d4d0082d5,63441b91be26106c41c6d73b,,,,,
제기동,동대문구,동대문구 제기동,127.0371359,37.5847843,63445ab0adb5727d4d0082d6,63441b91be26106c41c6d73b,,,,,
용두동,동대문구,동대문구 용두동,127.0363952,37.57628963,63445ab0adb5727d4d0082d7,63441b91be26106c41c6d73b,,,,,
전농동,동대문구,동대문구 전농동,127.0569413,37.58032514,63445ab0adb5727d4d0082d8,63441b98be26106c41c6d73c,,,,,
장안동,동대문구,동대문구 장안동,127.0716752,37.57115502,63445ab0adb5727d4d0082d9,63441b98be26106c41c6d73c,,,,,
답십리동,동대문구,동대문구 답십리동,127.05646,37.57005459,63445ab0adb5727d4d0082da,63441b98be26106c41c6d73c,,,,,
도봉동,도봉구,도봉구 도봉동,127.0302195,37.68520278,63445ab0adb5727d4d0082db,63441b98be26106c41c6d73c,,,,,
신설동,동대문구,동대문구 신설동,127.0255857,37.57478889,63445ab0adb5727d4d0082dc,63441b98be26106c41c6d73c,,,,,
청량리동,동대문구,동대문구 청량리동,127.0461507,37.58831358,63445ab0adb5727d4d0082dd,63441b98be26106c41c6d73c,,,,,
회기동,동대문구,동대문구 회기동,127.0509581,37.59453657,63445ab0adb5727d4d0082de,63441b98be26106c41c6d73c,,,,,
창동,도봉구,도봉구 창동,127.0445802,37.64631001,63445ab0adb5727d4d0082df,63441b98be26106c41c6d73c,,,,,
상도동,동작구,동작구 상도동,126.9402818,37.49960695,63445ab0adb5727d4d0082e0,63441b98be26106c41c6d73c,,,,,
본동,동작구,동작구 본동,126.9551973,37.51248219,63445ab0adb5727d4d0082e1,63441b98be26106c41c6d73c,,,,,
상도1동,동작구,동작구 상도1동,126.9402818,37.49960695,63445ab0adb5727d4d0082e2,63441ba9be26106c41c6d73d,,,,,
동작동,동작구,동작구 동작동,126.9745402,37.49989898,63445ab0adb5727d4d0082e3,63441ba9be26106c41c6d73d,,,,,
흑석동,동작구,동작구 흑석동,126.9629631,37.50527208,63445ab0adb5727d4d0082e4,63441ba9be26106c41c6d73d,,,,,
이문동,동대문구,동대문구 이문동,127.0623198,37.59939531,63445ab0adb5727d4d0082e5,63441ba9be26106c41c6d73d,,,,,
사당동,동작구,동작구 사당동,126.972033,37.48517873,63445ab0adb5727d4d0082e6,63441ba9be26106c41c6d73d,,,,,
노량진동,동작구,동작구 노량진동,126.9417536,37.51146707,63445ab0adb5727d4d0082e7,63441ba9be26106c41c6d73d,,,,,
대방동,동작구,동작구 대방동,126.9291038,37.50674862,63445ab0adb5727d4d0082e8,63441ba9be26106c41c6d73d,,,,,
휘경동,동대문구,동대문구 휘경동,127.0625978,37.58815275,63445ab0adb5727d4d0082e9,63441ba9be26106c41c6d73d,,,,,
용강동,마포구,마포구 용강동,126.9503989,37.5395533,63445ab0adb5727d4d0082ea,63441ba9be26106c41c6d73d,,,,,
신공덕동,마포구,마포구 신공덕동,126.9557098,37.54434838,63445ab0adb5727d4d0082eb,63441bb4be26106c41c6d73e,,,,,
마포동,마포구,마포구 마포동,126.9435403,37.53683549,63445ab0adb5727d4d0082ec,63441bb4be26106c41c6d73e,,,,,
토정동,마포구,마포구 토정동,126.9396996,37.53915193,63445ab0adb5727d4d0082ed,63441bb4be26106c41c6d73e,,,,,
도화동,마포구,마포구 도화동,126.9435403,37.53683549,63445ab0adb5727d4d0082ee,63441bb4be26106c41c6d73e,,,,,
아현동,마포구,마포구 아현동,126.9529935,37.5473878,63445ab0adb5727d4d0082ef,63441bb4be26106c41c6d73e,,,,,
대흥동,마포구,마포구 대흥동,126.9380114,37.55402004,63445ab0adb5727d4d0082f0,63441bb4be26106c41c6d73e,,,,,
신대방동,동작구,동작구 신대방동,126.9172652,37.49224314,63445ab0adb5727d4d0082f1,63441bb4be26106c41c6d73e,,,,,
공덕동,마포구,마포구 공덕동,126.9503989,37.5395533,63445ab0adb5727d4d0082f2,63441bb4be26106c41c6d73e,,,,,
상수동,마포구,마포구 상수동,126.9241705,37.54702299,63445ab0adb5727d4d0082f3,63441bb4be26106c41c6d73e,,,,,
염리동,마포구,마포구 염리동,126.9529935,37.5473878,63445ab0adb5727d4d0082f4,63441bb4be26106c41c6d73e,,,,,
구수동,마포구,마포구 구수동,126.9328024,37.54600414,63445ab0adb5727d4d0082f5,63441bb4be26106c41c6d73e,,,,,
신정동,마포구,마포구 신정동,126.9305331,37.54325664,63445ab0adb5727d4d0082f6,63441bb4be26106c41c6d73e,,,,,
하중동,마포구,마포구 하중동,126.9277692,37.54378385,63445ab0adb5727d4d0082f7,63441bb4be26106c41c6d73e,,,,,
창전동,마포구,마포구 창전동,126.9299746,37.54983519,63445ab0adb5727d4d0082f8,63441bb4be26106c41c6d73e,,,,,
신수동,마포구,마포구 신수동,126.9305331,37.54325664,63445ab0adb5727d4d0082f9,63441bb4be26106c41c6d73e,,,,,
당인동,마포구,마포구 당인동,126.9263182,37.54027107,63445ab0adb5727d4d0082fa,63441bb4be26106c41c6d73e,,,,,
노고산동,마포구,마포구 노고산동,126.9380114,37.55402004,63445ab0adb5727d4d0082fb,63441bb4be26106c41c6d73e,,,,,
현석동,마포구,마포구 현석동,126.9345139,37.54226027,63445ab0adb5727d4d0082fc,63441bb4be26106c41c6d73e,,,,,
중동,마포구,마포구 중동,126.9055938,37.57164442,63445ab0adb5727d4d0082fd,63441bb4be26106c41c6d73e,,,,,
연남동,마포구,마포구 연남동,126.9226282,37.56263432,63445ab0adb5727d4d0082fe,63441bb4be26106c41c6d73e,,,,,
서교동,마포구,마포구 서교동,126.9239551,37.55831827,63445ab0adb5727d4d0082ff,63441bb4be26106c41c6d73e,,,,,
충정로2가,서대문구,서대문구 충정로2가,126.9635644,37.56495514,63445ab0adb5727d4d008300,63441bb4be26106c41c6d73e,,,,,
상암동,마포구,마포구 상암동,126.8729106,37.57147341,63445ab0adb5727d4d008301,63441bb4be26106c41c6d73e,,,,,
성산동,마포구,마포구 성산동,126.9055927,37.5662404,63445ab0adb5727d4d008302,63441bb4be26106c41c6d73e,,,,,
충정로3가,서대문구,서대문구 충정로3가,126.962235,37.56229205,63445ab0adb5727d4d008303,63441bb4be26106c41c6d73e,,,,,
합정동,마포구,마포구 합정동,126.9096132,37.54773369,63445ab0adb5727d4d008304,63441bb4be26106c41c6d73e,,,,,
동교동,마포구,마포구 동교동,126.9239551,37.55831827,63445ab0adb5727d4d008305,63441bbbbe26106c41c6d73f,,,,,
망원동,마포구,마포구 망원동,126.9013679,37.55663245,63445ab0adb5727d4d008306,63441bbbbe26106c41c6d73f,,,,,
옥천동,서대문구,서대문구 옥천동,126.9577653,37.56918791,63445ab0adb5727d4d008307,63441bbbbe26106c41c6d73f,,,,,
현저동,서대문구,서대문구 현저동,126.9539815,37.57413913,63445ab0adb5727d4d008308,63441bbbbe26106c41c6d73f,,,,,
합동,서대문구,서대문구 합동,126.9657435,37.56136241,63445ab0adb5727d4d008309,63441bbbbe26106c41c6d73f,,,,,
홍제동,서대문구,서대문구 홍제동,126.9465768,37.58720391,63445ab0adb5727d4d00830a,63441bbbbe26106c41c6d73f,,,,,
북아현동,서대문구,서대문구 북아현동,126.9474938,37.56133852,63445ab0adb5727d4d00830b,63441bbbbe26106c41c6d73f,,,,,
영천동,서대문구,서대문구 영천동,126.9569979,37.57014723,63445ab0adb5727d4d00830c,63441bbbbe26106c41c6d73f,,,,,
대현동,서대문구,서대문구 대현동,126.9474938,37.56133852,63445ab0adb5727d4d00830d,63441bbbbe26106c41c6d73f,,,,,
냉천동,서대문구,서대문구 냉천동,126.9631407,37.56750936,63445ab0adb5727d4d00830e,63441bbbbe26106c41c6d73f,,,,,
미근동,서대문구,서대문구 미근동,126.9675493,37.5635672,63445ab0adb5727d4d00830f,63441bbbbe26106c41c6d73f,,,,,
천연동,서대문구,서대문구 천연동,126.9539815,37.57413913,63445ab0adb5727d4d008310,63441bbbbe26106c41c6d73f,,,,,
연희동,서대문구,서대문구 연희동,126.9328985,37.5725346,63445ab0adb5727d4d008311,63441bbbbe26106c41c6d73f,,,,,
북가좌동,서대문구,서대문구 북가좌동,126.9101271,37.57881003,63445ab0adb5727d4d008312,63441bbbbe26106c41c6d73f,,,,,
대신동,서대문구,서대문구 대신동,126.9449149,37.56460859,63445ab0adb5727d4d008313,63441bbbbe26106c41c6d73f,,,,,
방배동,서초구,서초구 방배동,126.9939851,37.47912809,63445ab0adb5727d4d008314,63441bbbbe26106c41c6d73f,,,,,
홍은동,서대문구,서대문구 홍은동,126.9376495,37.59332229,63445ab0adb5727d4d008315,63441bbbbe26106c41c6d73f,,,,,
남가좌동,서대문구,서대문구 남가좌동,126.9209904,37.57669991,63445ab0adb5727d4d008316,63441bbbbe26106c41c6d73f,,,,,
양재동,서초구,서초구 양재동,127.0385688,37.46880589,63445ab0adb5727d4d008317,63441bbbbe26106c41c6d73f,,,,,
봉원동,서대문구,서대문구 봉원동,126.9471154,37.5726852,63445ab0adb5727d4d008318,63441bbbbe26106c41c6d73f,,,,,
신촌동,서대문구,서대문구 신촌동,126.9341931,37.55881377,63445ab0adb5727d4d008319,63441bedbe26106c41c6d740,,,,,
창천동,서대문구,서대문구 창천동,126.9341931,37.55881377,63445ab0adb5727d4d00831a,63441bedbe26106c41c6d740,,,,,
서초동,서초구,서초구 서초동,127.0162998,37.48845867,63445ab0adb5727d4d00831b,63441bedbe26106c41c6d740,,,,,
염곡동,서초구,서초구 염곡동,127.0541792,37.46311561,63445ab0adb5727d4d00831c,63441bedbe26106c41c6d740,,,,,
우면동,서초구,서초구 우면동,127.0171696,37.46609484,63445ab0adb5727d4d00831d,63441bedbe26106c41c6d740,,,,,
내곡동,서초구,서초구 내곡동,127.0541792,37.46311561,63445ab0adb5727d4d00831e,63441bedbe26106c41c6d740,,,,,
신원동,서초구,서초구 신원동,127.063971,37.44516352,63445ab0adb5727d4d00831f,63441bedbe26106c41c6d740,,,,,
상왕십리동,성동구,성동구 상왕십리동,127.0246784,37.56861754,63445ab0adb5727d4d008320,63441bedbe26106c41c6d740,,,,,
잠원동,서초구,서초구 잠원동,127.0098641,37.51493466,63445ab0adb5727d4d008321,63441bedbe26106c41c6d740,,,,,
하왕십리동,성동구,성동구 하왕십리동,127.0282421,37.56430104,63445ab0adb5727d4d008322,63441bedbe26106c41c6d740,,,,,
원지동,서초구,서초구 원지동,127.0479721,37.44499174,63445ab0adb5727d4d008323,63441bfabe26106c41c6d741,,,,,
반포동,서초구,서초구 반포동,127.0023271,37.5046175,63445ab0adb5727d4d008324,63441bfabe26106c41c6d741,,,,,
행당동,성동구,성동구 행당동,127.0348084,37.55915152,63445ab0adb5727d4d008325,63441bfabe26106c41c6d741,,,,,
금호동1가,성동구,성동구 금호동1가,127.0265454,37.55296222,63445ab0adb5727d4d008326,63441bfabe26106c41c6d741,,,,,
홍익동,성동구,성동구 홍익동,127.03182,37.56731045,63445ab0adb5727d4d008327,63441bfabe26106c41c6d741,,,,,
응봉동,성동구,성동구 응봉동,127.0334962,37.55054428,63445ab0adb5727d4d008328,63441bfabe26106c41c6d741,,,,,
금호동2가,성동구,성동구 금호동2가,127.0201552,37.55279151,63445ab0adb5727d4d008329,63441bfabe26106c41c6d741,,,,,
금호동3가,성동구,성동구 금호동3가,127.0189925,37.55034183,63445ab0adb5727d4d00832a,63441bfabe26106c41c6d741,,,,,
마장동,성동구,성동구 마장동,127.0406041,37.56712409,63445ab0adb5727d4d00832b,63441bfabe26106c41c6d741,,,,,
금호동4가,성동구,성동구 금호동4가,127.0257607,37.54520841,63445ab0adb5727d4d00832c,63441bfabe26106c41c6d741,,,,,
도선동,성동구,성동구 도선동,127.0339157,37.56342568,63445ab0adb5727d4d00832d,63441bfabe26106c41c6d741,,,,,
용답동,성동구,성동구 용답동,127.0616091,37.55420491,63445ab0adb5727d4d00832e,63441bfabe26106c41c6d741,,,,,
사근동,성동구,성동구 사근동,127.0348084,37.55915152,63445ab0adb5727d4d00832f,63441bfabe26106c41c6d741,,,,,
성북동1가,성북구,성북구 성북동1가,127.0040574,37.58791087,63445ab0adb5727d4d008330,63441bfabe26106c41c6d741,,,,,
옥수동,성동구,성동구 옥수동,127.0149615,37.5421221,63445ab0adb5727d4d008331,63441bfabe26106c41c6d741,,,,,
성북동,성북구,성북구 성북동,127.0035905,37.58955132,63445ab0adb5727d4d008332,63441bfabe26106c41c6d741,,,,,
돈암동,성북구,성북구 돈암동,127.0092338,37.59710871,63445ab0adb5727d4d008333,63441bfabe26106c41c6d741,,,,,
성수동2가,성동구,성동구 성수동2가,127.056985,37.53964824,63445ab0adb5727d4d008334,63441c0cbe26106c41c6d742,,,,,
동소문동1가,성북구,성북구 동소문동1가,127.0073594,37.59012533,63445ab0adb5727d4d008335,63441c0cbe26106c41c6d742,,,,,
동소문동2가,성북구,성북구 동소문동2가,127.0083431,37.58881678,63445ab0adb5727d4d008336,63441c0cbe26106c41c6d742,,,,,
성수동1가,성동구,성동구 성수동1가,127.041551,37.54303055,63445ab0adb5727d4d008337,63441c0cbe26106c41c6d742,,,,,
동소문동7가,성북구,성북구 동소문동7가,127.0141637,37.59632153,63445ab0adb5727d4d008338,63441c0cbe26106c41c6d742,,,,,
송정동,성동구,성동구 송정동,127.0616091,37.55420491,63445ab0adb5727d4d008339,63441c0cbe26106c41c6d742,,,,,
삼선동2가,성북구,성북구 삼선동2가,127.0099557,37.58879914,63445ab0adb5727d4d00833a,63441c0cbe26106c41c6d742,,,,,
동소문동3가,성북구,성북구 동소문동3가,127.0108616,37.59026954,63445ab0adb5727d4d00833b,63441c0cbe26106c41c6d742,,,,,
삼선동1가,성북구,성북구 삼선동1가,127.0043223,37.58752891,63445ab0adb5727d4d00833c,63441c0cbe26106c41c6d742,,,,,
삼선동3가,성북구,성북구 삼선동3가,127.0108933,37.58836688,63445ab0adb5727d4d00833d,63441c0cbe26106c41c6d742,,,,,
동소문동5가,성북구,성북구 동소문동5가,127.0150858,37.5915369,63445ab0adb5727d4d00833e,63441c0cbe26106c41c6d742,,,,,
삼선동4가,성북구,성북구 삼선동4가,127.0111139,37.5894755,63445ab0adb5727d4d00833f,63441c0cbe26106c41c6d742,,,,,
삼선동5가,성북구,성북구 삼선동5가,127.0139994,37.58937506,63445ab0adb5727d4d008340,63441c0cbe26106c41c6d742,,,,,
동소문동4가,성북구,성북구 동소문동4가,127.0107821,37.59182575,63445ab0adb5727d4d008341,63441c0cbe26106c41c6d742,,,,,
동선동5가,성북구,성북구 동선동5가,127.0164314,37.59480761,63445ab0adb5727d4d008342,63441c0cbe26106c41c6d742,,,,,
동소문동6가,성북구,성북구 동소문동6가,127.0140362,37.59360251,63445ab0adb5727d4d008343,63441c0cbe26106c41c6d742,,,,,
안암동2가,성북구,성북구 안암동2가,127.0209148,37.58685613,63445ab0adb5727d4d008344,63441c0cbe26106c41c6d742,,,,,
동선동1가,성북구,성북구 동선동1가,127.0173103,37.5928121,63445ab0adb5727d4d008345,63441c0cbe26106c41c6d742,,,,,
안암동1가,성북구,성북구 안암동1가,127.019123,37.58883761,63445ab0adb5727d4d008346,63441c0cbe26106c41c6d742,,,,,
안암동3가,성북구,성북구 안암동3가,127.0216795,37.58469889,63445ab0adb5727d4d008347,63441c0cbe26106c41c6d742,,,,,
동선동3가,성북구,성북구 동선동3가,127.0198579,37.59464133,63445ab0adb5727d4d008348,63441c0cbe26106c41c6d742,,,,,
안암동4가,성북구,성북구 안암동4가,127.0233114,37.58116298,63445ab0adb5727d4d008349,63441c0cbe26106c41c6d742,,,,,
안암동5가,성북구,성북구 안암동5가,127.0309857,37.59101933,63445ab0adb5727d4d00834a,63441c0cbe26106c41c6d742,,,,,
동선동2가,성북구,성북구 동선동2가,127.0176018,37.58995497,63445ab0adb5727d4d00834b,63441c0cbe26106c41c6d742,,,,,
보문동5가,성북구,성북구 보문동5가,127.0198031,37.58350297,63445ab0adb5727d4d00834c,63441c0cbe26106c41c6d742,,,,,
동선동4가,성북구,성북구 동선동4가,127.0170417,37.59332043,63445ab0adb5727d4d00834d,63441c0cbe26106c41c6d742,,,,,
보문동7가,성북구,성북구 보문동7가,127.0225717,37.58073834,63445ab0adb5727d4d00834e,63441c0cbe26106c41c6d742,,,,,
보문동1가,성북구,성북구 보문동1가,127.018635,37.58840133,63445ab0adb5727d4d00834f,63441c0cbe26106c41c6d742,,,,,
정릉동,성북구,성북구 정릉동,126.9972712,37.61677268,63445ab0adb5727d4d008350,63441c0cbe26106c41c6d742,,,,,
보문동6가,성북구,성북구 보문동6가,127.0183131,37.58298233,63445ab0adb5727d4d008351,63441c0cbe26106c41c6d742,,,,,
보문동3가,성북구,성북구 보문동3가,127.016595,37.58557757,63445ab0adb5727d4d008352,63441c0cbe26106c41c6d742,,,,,
길음동,성북구,성북구 길음동,127.023269,37.6085254,63445ab0adb5727d4d008353,63441c0cbe26106c41c6d742,,,,,
종암동,성북구,성북구 종암동,127.0332363,37.59656592,63445ab0adb5727d4d008354,63441c0cbe26106c41c6d742,,,,,
잠실동,송파구,송파구 잠실동,127.085214,37.51124107,63445ab0adb5727d4d008355,63441c0cbe26106c41c6d742,,,,,
보문동2가,성북구,성북구 보문동2가,127.0177861,37.58728045,63445ab0adb5727d4d008356,63441c0cbe26106c41c6d742,,,,,
풍납동,송파구,송파구 풍납동,127.1149763,37.53370746,63445ab0adb5727d4d008357,63441c0cbe26106c41c6d742,,,,,
송파동,송파구,송파구 송파동,127.1155354,37.50487404,63445ab0adb5727d4d008358,63441c0cbe26106c41c6d742,,,,,
신천동,송파구,송파구 신천동,127.0950694,37.52499516,63445ab0adb5727d4d008359,63441c0cbe26106c41c6d742,,,,,
보문동4가,성북구,성북구 보문동4가,127.0203127,37.58408889,63445ab0adb5727d4d00835a,63441c0cbe26106c41c6d742,,,,,
하월곡동,성북구,성북구 하월곡동,127.0395089,37.60417072,63445ab0adb5727d4d00835b,63441c14be26106c41c6d743,,,,,
석촌동,송파구,송파구 석촌동,127.1030165,37.50317288,63445ab0adb5727d4d00835c,63441c14be26106c41c6d743,,,,,
삼전동,송파구,송파구 삼전동,127.0913061,37.50165971,63445ab0adb5727d4d00835d,63441c14be26106c41c6d743,,,,,
오금동,송파구,송파구 오금동,127.1343221,37.50378594,63445ab0adb5727d4d00835e,63441c14be26106c41c6d743,,,,,
장위동,성북구,성북구 장위동,127.0499948,37.61604132,63445ab0adb5727d4d00835f,63441c14be26106c41c6d743,,,,,
마천동,송파구,송파구 마천동,127.1538691,37.49747032,63445ab0adb5727d4d008360,63441c14be26106c41c6d743,,,,,
신정동,양천구,양천구 신정동,126.8635173,37.51639875,63445ab0adb5727d4d008361,63441c14be26106c41c6d743,,,,,
거여동,송파구,송파구 거여동,127.1466421,37.49069091,63445ab0adb5727d4d008362,63441c14be26106c41c6d743,,,,,
상월곡동,성북구,성북구 상월곡동,127.0468827,37.60606965,63445ab0adb5727d4d008363,63441c14be26106c41c6d743,,,,,
가락동,송파구,송파구 가락동,127.1191525,37.49423924,63445ab0adb5727d4d008364,63441c14be26106c41c6d743,,,,,
신월동,양천구,양천구 신월동,126.8336006,37.52874259,63445ab0adb5727d4d008365,63441c14be26106c41c6d743,,,,,
목동,양천구,양천구 목동,126.8758257,37.53677908,63445ab0adb5727d4d008366,63441c14be26106c41c6d743,,,,,
석관동,성북구,성북구 석관동,127.0612268,37.60790931,63445ab0adb5727d4d008367,63441c14be26106c41c6d743,,,,,
장지동,송파구,송파구 장지동,127.1223503,37.48535788,63445ab0adb5727d4d008368,63441c24be26106c41c6d744,,,,,
영등포동4가,영등포구,영등포구 영등포동4가,126.9045674,37.51993973,63445ab0adb5727d4d008369,63441c24be26106c41c6d744,,,,,
영등포동6가,영등포구,영등포구 영등포동6가,126.9042017,37.52027128,63445ab0adb5727d4d00836a,63441c24be26106c41c6d744,,,,,
영등포동7가,영등포구,영등포구 영등포동7가,126.909027,37.52263408,63445ab0adb5727d4d00836b,63441c31be26106c41c6d745,,,,,
문정동,송파구,송파구 문정동,127.1223503,37.48535788,63445ab0adb5727d4d00836c,63441c31be26106c41c6d745,,,,,
영등포동5가,영등포구,영등포구 영등포동5가,126.9077919,37.51972212,63445ab0adb5727d4d00836d,63441c31be26106c41c6d745,,,,,
영등포동,영등포구,영등포구 영등포동,126.9036488,37.51785639,63445ab0adb5727d4d00836e,63441c31be26106c41c6d745,,,,,
여의도동,영등포구,영등포구 여의도동,126.9294419,37.52849122,63445ab0adb5727d4d00836f,63441c31be26106c41c6d745,,,,,
영등포동8가,영등포구,영등포구 영등포동8가,126.906563,37.52623634,63445ab0adb5727d4d008370,63441c31be26106c41c6d745,,,,,
방이동,송파구,송파구 방이동,127.1272223,37.51632496,63445ab0adb5727d4d008371,63441c31be26106c41c6d745,,,,,
영등포동2가,영등포구,영등포구 영등포동2가,126.9157417,37.51846892,63445ab0adb5727d4d008372,63441c31be26106c41c6d745,,,,,
당산동5가,영등포구,영등포구 당산동5가,126.9012303,37.53207814,63445ab0adb5727d4d008373,63441c31be26106c41c6d745,,,,,
당산동,영등포구,영등포구 당산동,126.9062433,37.53486793,63445ab0adb5727d4d008374,63441c31be26106c41c6d745,,,,,
도림동,영등포구,영등포구 도림동,126.8993327,37.50821049,63445ab0adb5727d4d008375,63441c31be26106c41c6d745,,,,,
영등포동1가,영등포구,영등포구 영등포동1가,126.9167337,37.51732478,63445ab0adb5727d4d008376,63441c31be26106c41c6d745,,,,,
당산동6가,영등포구,영등포구 당산동6가,126.9024908,37.53475943,63445ab0adb5727d4d008377,63441c31be26106c41c6d745,,,,,
문래동2가,영등포구,영등포구 문래동2가,126.8961596,37.51322131,63445ab0adb5727d4d008378,63441c31be26106c41c6d745,,,,,
당산동1가,영등포구,영등포구 당산동1가,126.898403,37.52145254,63445ab0adb5727d4d008379,63441c31be26106c41c6d745,,,,,
문래동1가,영등포구,영등포구 문래동1가,126.9038206,37.51480567,63445ab0adb5727d4d00837a,63441c31be26106c41c6d745,,,,,
영등포동3가,영등포구,영등포구 영등포동3가,126.9080831,37.5190476,63445ab0adb5727d4d00837b,63441c31be26106c41c6d745,,,,,
당산동3가,영등포구,영등포구 당산동3가,126.8973704,37.52623042,63445ab0adb5727d4d00837c,63441c31be26106c41c6d745,,,,,
양평동1가,영등포구,영등포구 양평동1가,126.8886352,37.5231417,63445ab0adb5727d4d00837d,63441c31be26106c41c6d745,,,,,
양평동4가,영등포구,영등포구 양평동4가,126.8962882,37.53641663,63445ab0adb5727d4d00837e,63441c31be26106c41c6d745,,,,,
양평동3가,영등포구,영등포구 양평동3가,126.891955,37.52969273,63445ab0adb5727d4d00837f,63441c31be26106c41c6d745,,,,,
당산동2가,영등포구,영등포구 당산동2가,126.8936506,37.52243212,63445ab0adb5727d4d008380,63441c31be26106c41c6d745,,,,,
양평동2가,영등포구,영등포구 양평동2가,126.8836545,37.52332332,63445ab0adb5727d4d008381,63441c31be26106c41c6d745,,,,,
양평동6가,영등포구,영등포구 양평동6가,126.8901876,37.54271514,63445ab0adb5727d4d008382,63441c31be26106c41c6d745,,,,,
양평동5가,영등포구,영등포구 양평동5가,126.8924287,37.53891867,63445ab0adb5727d4d008383,63441c31be26106c41c6d745,,,,,
문래동3가,영등포구,영등포구 문래동3가,126.9015137,37.51488635,63445ab0adb5727d4d008384,63441c31be26106c41c6d745,,,,,
당산동4가,영등포구,영등포구 당산동4가,126.8987178,37.52914372,63445ab0adb5727d4d008385,63441c31be26106c41c6d745,,,,,
문래동5가,영등포구,영등포구 문래동5가,126.8867869,37.51512611,63445ab0adb5727d4d008386,63441c31be26106c41c6d745,,,,,
문래동4가,영등포구,영등포구 문래동4가,126.8917759,37.51556768,63445ab0adb5727d4d008387,63441c31be26106c41c6d745,,,,,
갈월동,용산구,용산구 갈월동,126.9715704,37.54493279,63445ab0adb5727d4d008388,63441c31be26106c41c6d745,,,,,
동빙고동,용산구,용산구 동빙고동,126.9957871,37.52358498,63445ab0adb5727d4d008389,63441c31be26106c41c6d745,,,,,
도원동,용산구,용산구 도원동,126.9556166,37.53878158,63445ab0adb5727d4d00838a,63441c31be26106c41c6d745,,,,,
남영동,용산구,용산구 남영동,126.9727447,37.55151766,63445ab0adb5727d4d00838b,63441c31be26106c41c6d745,,,,,
문배동,용산구,용산구 문배동,126.9691998,37.53714128,63445ab0adb5727d4d00838c,63441c31be26106c41c6d745,,,,,
양화동,영등포구,영등포구 양화동,126.8879342,37.54898511,63445ab0adb5727d4d00838d,63441c40be26106c41c6d746,,,,,
문래동6가,영등포구,영등포구 문래동6가,126.8884993,37.51954258,63445ab0adb5727d4d00838e,63441c40be26106c41c6d746,,,,,
대림동,영등포구,영등포구 대림동,126.9012505,37.49706665,63445ab0adb5727d4d00838f,63441c40be26106c41c6d746,,,,,
동자동,용산구,용산구 동자동,126.9727447,37.55151766,63445ab0adb5727d4d008390,63441c40be26106c41c6d746,,,,,
신길동,영등포구,영등포구 신길동,126.9110441,37.50590278,63445ab0adb5727d4d008391,63441c40be26106c41c6d746,,,,,
신계동,용산구,용산구 신계동,126.9667697,37.53542335,63445ab0adb5727d4d008392,63441c40be26106c41c6d746,,,,,
용산동1가,용산구,용산구 용산동1가,126.9766401,37.54026756,63445ab0adb5727d4d008393,63441c40be26106c41c6d746,,,,,
용문동,용산구,용산구 용문동,126.9556166,37.53878158,63445ab0adb5727d4d008394,63441c40be26106c41c6d746,,,,,
신창동,용산구,용산구 신창동,126.9549356,37.53583888,63445ab0adb5727d4d008395,63441c40be26106c41c6d746,,,,,
용산동3가,용산구,용산구 용산동3가,126.977287,37.53216921,63445ab0adb5727d4d008396,63441c40be26106c41c6d746,,,,,
보광동,용산구,용산구 보광동,127.0005741,37.52688166,63445ab0adb5727d4d008397,63441c40be26106c41c6d746,,,,,
양평동,영등포구,영등포구 양평동,126.88943,37.53722928,63445ab0adb5727d4d008398,63441c40be26106c41c6d746,,,,,
서계동,용산구,용산구 서계동,126.9664327,37.55258491,63445ab0adb5727d4d008399,63441c40be26106c41c6d746,,,,,
용산동2가,용산구,용산구 용산동2가,126.9837293,37.54305503,63445ab0adb5727d4d00839a,63441c40be26106c41c6d746,,,,,
산천동,용산구,용산구 산천동,126.9511189,37.53570645,63445ab0adb5727d4d00839b,63441c40be26106c41c6d746,,,,,
원효로2가,용산구,용산구 원효로2가,126.9635624,37.53636782,63445ab0adb5727d4d00839c,63441c40be26106c41c6d746,,,,,
이촌동,용산구,용산구 이촌동,126.9664108,37.51877521,63445ab0adb5727d4d00839d,63441c40be26106c41c6d746,,,,,
원효로4가,용산구,용산구 원효로4가,126.9501783,37.5329181,63445ab0adb5727d4d00839e,63441c40be26106c41c6d746,,,,,
원효로3가,용산구,용산구 원효로3가,126.9578139,37.53434868,63445ab0adb5727d4d00839f,63441c40be26106c41c6d746,,,,,
주성동,용산구,용산구 주성동,127.0001493,37.52156816,63445ab0adb5727d4d0083a0,63441c40be26106c41c6d746,,,,,
용산동4가,용산구,용산구 용산동4가,126.9855273,37.53059144,63445ab0adb5727d4d0083a1,63441c40be26106c41c6d746,,,,,
서빙고동,용산구,용산구 서빙고동,126.9957871,37.52358498,63445ab0adb5727d4d0083a2,63441c40be26106c41c6d746,,,,,
용산동6가,용산구,용산구 용산동6가,126.9841235,37.5168161,63445ab0adb5727d4d0083a3,63441c40be26106c41c6d746,,,,,
이태원동,용산구,용산구 이태원동,126.991128,37.53884125,63445ab0adb5727d4d0083a4,63441c40be26106c41c6d746,,,,,
용산동5가,용산구,용산구 용산동5가,126.9748424,37.52557953,63445ab0adb5727d4d0083a5,63441c40be26106c41c6d746,,,,,
한강로1가,용산구,용산구 한강로1가,126.9724387,37.5387899,63445ab0adb5727d4d0083a6,63441c40be26106c41c6d746,,,,,
한남동,용산구,용산구 한남동,127.0063494,37.53746041,63445ab0adb5727d4d0083a7,63441c40be26106c41c6d746,,,,,
한강로3가,용산구,용산구 한강로3가,126.9639227,37.53373866,63445ab0adb5727d4d0083a8,63441c40be26106c41c6d746,,,,,
한강로2가,용산구,용산구 한강로2가,126.9682528,37.53265556,63445ab0adb5727d4d0083a9,63441c40be26106c41c6d746,,,,,
후암동,용산구,용산구 후암동,126.9815742,37.55042469,63445ab0adb5727d4d0083aa,63441c40be26106c41c6d746,,,,,
청암동,용산구,용산구 청암동,126.9462133,37.53425046,63445ab0adb5727d4d0083ab,63441c40be26106c41c6d746,,,,,
불광동,은평구,은평구 불광동,126.9354269,37.61910738,63445ab0adb5727d4d0083ac,63441c40be26106c41c6d746,,,,,
원효로1가,용산구,용산구 원효로1가,126.967354,37.53986367,63445ab0adb5727d4d0083ad,63441c40be26106c41c6d746,,,,,
효창동,용산구,용산구 효창동,126.9597807,37.5435614,63445ab0adb5727d4d0083ae,63441c40be26106c41c6d746,,,,,
역촌동,은평구,은평구 역촌동,126.9151674,37.60507371,63445ab0adb5727d4d0083af,63441c40be26106c41c6d746,,,,,
청파동2가,용산구,용산구 청파동2가,126.9666093,37.54718105,63445ab0adb5727d4d0083b0,63441c40be26106c41c6d746,,,,,
신사동,은평구,은평구 신사동,126.9083679,37.59581227,63445ab0adb5727d4d0083b1,63441c4cbe26106c41c6d747,,,,,
청파동1가,용산구,용산구 청파동1가,126.9681748,37.55003795,63445ab0adb5727d4d0083b2,63441c4cbe26106c41c6d747,,,,,
수색동,은평구,은평구 수색동,126.8950292,37.58497344,63445ab0adb5727d4d0083b3,63441c4cbe26106c41c6d747,,,,,
증산동,은평구,은평구 증산동,126.9055893,37.58317152,63445ab0adb5727d4d0083b4,63441c4cbe26106c41c6d747,,,,,
계동,종로구,종로구 계동,126.987006,37.58290692,63445ab0adb5727d4d0083b5,63441c4cbe26106c41c6d747,,,,,
갈현동,은평구,은평구 갈현동,126.9129476,37.62105269,63445ab0adb5727d4d0083b6,63441c4cbe26106c41c6d747,,,,,
응암동,은평구,은평구 응암동,126.9214555,37.59263514,63445ab0adb5727d4d0083b7,63441c4cbe26106c41c6d747,,,,,
관철동,종로구,종로구 관철동,126.9857741,37.56921711,63445ab0adb5727d4d0083b8,63441c4cbe26106c41c6d747,,,,,
녹번동,은평구,은평구 녹번동,126.9319127,37.60424909,63445ab0adb5727d4d0083b9,63441c4cbe26106c41c6d747,,,,,
구산동,은평구,은평구 구산동,126.9082417,37.61217081,63445ab0adb5727d4d0083ba,63441c4cbe26106c41c6d747,,,,,
관수동,종로구,종로구 관수동,126.9904307,37.5690552,63445ab0adb5727d4d0083bb,63441c4cbe26106c41c6d747,,,,,
공평동,종로구,종로구 공평동,126.9832121,37.57131117,63445ab0adb5727d4d0083bc,63441c55be26106c41c6d748,,,,,
낙원동,종로구,종로구 낙원동,126.9885962,37.57254236,63445ab0adb5727d4d0083bd,63441c55be26106c41c6d748,,,,,
청파동3가,용산구,용산구 청파동3가,126.9707089,37.5445539,63445ab0adb5727d4d0083be,63441c55be26106c41c6d748,,,,,
진관동,은평구,은평구 진관동,126.9354166,37.64228785,63445ab0adb5727d4d0083bf,63441c55be26106c41c6d748,,,,,
교남동,종로구,종로구 교남동,126.9670956,37.56768204,63445ab0adb5727d4d0083c0,63441c55be26106c41c6d748,,,,,
관훈동,종로구,종로구 관훈동,126.984942,37.57415044,63445ab0adb5727d4d0083c1,63441c55be26106c41c6d748,,,,,
누상동,종로구,종로구 누상동,126.9634002,37.58022966,63445ab0adb5727d4d0083c2,63441c55be26106c41c6d748,,,,,
견지동,종로구,종로구 견지동,126.9832211,37.57372618,63445ab0adb5727d4d0083c3,63441c55be26106c41c6d748,,,,,
가희동,종로구,종로구 가희동,126.9667806,37.59908121,63445ab0adb5727d4d0083c4,63441c55be26106c41c6d748,,,,,
내수동,종로구,종로구 내수동,126.9720247,37.57336835,63445ab0adb5727d4d0083c5,63441c55be26106c41c6d748,,,,,
내자동,종로구,종로구 내자동,126.9716003,37.57531442,63445ab0adb5727d4d0083c6,63441c55be26106c41c6d748,,,,,
대조동,은평구,은평구 대조동,126.9226528,37.61263416,63445ab0adb5727d4d0083c7,63441c55be26106c41c6d748,,,,,
명륜2가,종로구,종로구 명륜2가,126.9988849,37.58463718,63445ab0adb5727d4d0083c8,63441c55be26106c41c6d748,,,,,
교북동,종로구,종로구 교북동,126.961767,37.57139759,63445ab0adb5727d4d0083c9,63441c55be26106c41c6d748,,,,,
당주동,종로구,종로구 당주동,126.9737666,37.5715855,63445ab0adb5727d4d0083ca,63441c55be26106c41c6d748,,,,,
누하동,종로구,종로구 누하동,126.968602,37.57935701,63445ab0adb5727d4d0083cb,63441c55be26106c41c6d748,,,,,
묘동,종로구,종로구 묘동,126.9916844,37.57254922,63445ab0adb5727d4d0083cc,63441c55be26106c41c6d748,,,,,
궁정동,종로구,종로구 궁정동,126.9730518,37.58489232,63445ab0adb5727d4d0083cd,63441c55be26106c41c6d748,,,,,
구기동,종로구,종로구 구기동,126.9574515,37.61799022,63445ab0adb5727d4d0083ce,63441c55be26106c41c6d748,,,,,
명륜3가,종로구,종로구 명륜3가,126.994967,37.58730494,63445ab0adb5727d4d0083cf,63441c55be26106c41c6d748,,,,,
명륜4가,종로구,종로구 명륜4가,126.9997021,37.58236924,63445ab0adb5727d4d0083d0,63441c55be26106c41c6d748,,,,,
경운동,종로구,종로구 경운동,126.9861925,37.57524356,63445ab0adb5727d4d0083d1,63441c55be26106c41c6d748,,,,,
서린동,종로구,종로구 서린동,126.980332,37.56947842,63445ab0adb5727d4d0083d2,63441c55be26106c41c6d748,,,,,
도렴동,종로구,종로구 도렴동,126.9746282,37.5726868,63445ab0adb5727d4d0083d3,63441c55be26106c41c6d748,,,,,
봉익동,종로구,종로구 봉익동,126.992888,37.57238511,63445ab0adb5727d4d0083d4,63441c55be26106c41c6d748,,,,,
무악동,종로구,종로구 무악동,126.9587839,37.57680168,63445ab0adb5727d4d0083d5,63441c55be26106c41c6d748,,,,,
송월동,종로구,종로구 송월동,126.9651246,37.57017374,63445ab0adb5727d4d0083d6,63441c55be26106c41c6d748,,,,,
동숭동,종로구,종로구 동숭동,127.0047707,37.58161316,63445ab0adb5727d4d0083d7,63441c55be26106c41c6d748,,,,,
돈의동,종로구,종로구 돈의동,126.9904602,37.57200933,63445ab0adb5727d4d0083d8,63441c55be26106c41c6d748,,,,,
세종로,종로구,종로구 세종로,126.9768621,37.57948691,63445ab0adb5727d4d0083d9,63441c55be26106c41c6d748,,,,,
신영동,종로구,종로구 신영동,126.9616078,37.60304252,63445ab0adb5727d4d0083da,63441c55be26106c41c6d748,,,,,
권농동,종로구,종로구 권농동,126.9912857,37.57609012,63445ab0adb5727d4d0083db,63441c55be26106c41c6d748,,,,,
소격동,종로구,종로구 소격동,126.9810908,37.57976226,63445ab0adb5727d4d0083dc,63441c55be26106c41c6d748,,,,,
부암동,종로구,종로구 부암동,126.9616078,37.60304252,63445ab0adb5727d4d0083dd,63441c55be26106c41c6d748,,,,,
송현동,종로구,종로구 송현동,126.9817496,37.57703411,63445ab0adb5727d4d0083de,63441c55be26106c41c6d748,,,,,
수송동,종로구,종로구 수송동,126.9803182,37.57385425,63445ab0adb5727d4d0083df,63441c55be26106c41c6d748,,,,,
연지동,종로구,종로구 연지동,126.9999467,37.57376615,63445ab0adb5727d4d0083e0,63441c55be26106c41c6d748,,,,,
사직동,종로구,종로구 사직동,126.9741172,37.57037275,63445ab0adb5727d4d0083e1,63441c55be26106c41c6d748,,,,,
사간동,종로구,종로구 사간동,126.9803027,37.57722674,63445ab0adb5727d4d0083e2,63441c55be26106c41c6d748,,,,,
안국동,종로구,종로구 안국동,126.983524,37.57747082,63445ab0adb5727d4d0083e3,63441c55be26106c41c6d748,,,,,
이화동,종로구,종로구 이화동,126.9994743,37.57852163,63445ab0adb5727d4d0083e4,63441c55be26106c41c6d748,,,,,
명륜1가,종로구,종로구 명륜1가,126.9976869,37.58895081,63445ab0adb5727d4d0083e5,63441c55be26106c41c6d748,,,,,
연건동,종로구,종로구 연건동,126.9994743,37.57852163,63445ab0adb5727d4d0083e6,63441c55be26106c41c6d748,,,,,
숭인동,종로구,종로구 숭인동,127.019356,37.57665755,63445ab0adb5727d4d0083e7,63441c55be26106c41c6d748,,,,,
옥인동,종로구,종로구 옥인동,126.9623248,37.58355431,63445ab0adb5727d4d0083e8,63441c55be26106c41c6d748,,,,,
예지동,종로구,종로구 예지동,126.9986235,37.56950337,63445ab0adb5727d4d0083e9,63441c55be26106c41c6d748,,,,,
인의동,종로구,종로구 인의동,126.9978254,37.57254882,63445ab0adb5727d4d0083ea,63441c55be26106c41c6d748,,,,,
신문로1가,종로구,종로구 신문로1가,126.9741172,37.57037275,63445ab0adb5727d4d0083eb,63441c55be26106c41c6d748,,,,,
신교동,종로구,종로구 신교동,126.968017,37.5844364,63445ab0adb5727d4d0083ec,63441c55be26106c41c6d748,,,,,
익선동,종로구,종로구 익선동,126.9896753,37.57424383,63445ab0adb5727d4d0083ed,63441c55be26106c41c6d748,,,,,
삼청동,종로구,종로구 삼청동,126.9810908,37.57976226,63445ab0adb5727d4d0083ee,63441c55be26106c41c6d748,,,,,
인사동,종로구,종로구 인사동,126.9858807,37.5720641,63445ab0adb5727d4d0083ef,63441c55be26106c41c6d748,,,,,
와룡동,종로구,종로구 와룡동,126.9927801,37.58091591,63445ab0adb5727d4d0083f0,63441c55be26106c41c6d748,,,,,
종로4가,종로구,종로구 종로4가,126.9768621,37.57948691,63445ab0adb5727d4d0083f1,63441c55be26106c41c6d748,,,,,
재동,종로구,종로구 재동,126.9853335,37.5781571,63445ab0adb5727d4d0083f2,63441c55be26106c41c6d748,,,,,
장사동,종로구,종로구 장사동,126.9940881,37.56923293,63445ab0adb5727d4d0083f3,63441c55be26106c41c6d748,,,,,
중학동,종로구,종로구 중학동,126.9797045,37.57519459,63445ab0adb5727d4d0083f4,63441c55be26106c41c6d748,,,,,
원남동,종로구,종로구 원남동,126.9975527,37.57548596,63445ab0adb5727d4d0083f5,63441c55be26106c41c6d748,,,,,
운니동,종로구,종로구 운니동,126.9882754,37.57634399,63445ab0adb5727d4d0083f6,63441c55be26106c41c6d748,,,,,
종로5가,종로구,종로구 종로5가,126.9999467,37.57376615,63445ab0adb5727d4d0083f7,63441c55be26106c41c6d748,,,,,
종로6가,종로구,종로구 종로6가,126.9999467,37.57376615,63445ab0adb5727d4d0083f8,63441c55be26106c41c6d748,,,,,
신문로2가,종로구,종로구 신문로2가,126.9691115,37.57102547,63445ab0adb5727d4d0083f9,63441c55be26106c41c6d748,,,,,
적선동,종로구,종로구 적선동,126.9737761,37.57527955,63445ab0adb5727d4d0083fa,63441c55be26106c41c6d748,,,,,
통의동,종로구,종로구 통의동,126.9728825,37.57799113,63445ab0adb5727d4d0083fb,63441c55be26106c41c6d748,,,,,
창신동,종로구,종로구 창신동,127.0119932,37.57599763,63445ab0adb5727d4d0083fc,63441c55be26106c41c6d748,,,,,
창성동,종로구,종로구 창성동,126.9724002,37.5805725,63445ab0adb5727d4d0083fd,63441c55be26106c41c6d748,,,,,
종로2가,종로구,종로구 종로2가,126.9978341,37.57068475,63445ab0adb5727d4d0083fe,63441c55be26106c41c6d748,,,,,
평동,종로구,종로구 평동,126.9670956,37.56768204,63445ab0adb5727d4d0083ff,63441c55be26106c41c6d748,,,,,
종로1가,종로구,종로구 종로1가,126.9978341,37.57068475,63445ab0adb5727d4d008400,63441c55be26106c41c6d748,,,,,
통인동,종로구,종로구 통인동,126.9702933,37.57981132,63445ab0adb5727d4d008401,63441c55be26106c41c6d748,,,,,
팔판동,종로구,종로구 팔판동,126.9809896,37.58277536,63445ab0adb5727d4d008402,63441c55be26106c41c6d748,,,,,
원서동,종로구,종로구 원서동,126.9882571,37.58414396,63445ab0adb5727d4d008403,63441c55be26106c41c6d748,,,,,
청운동,종로구,종로구 청운동,126.9697706,37.58904325,63445ab0adb5727d4d008404,63441c55be26106c41c6d748,,,,,
필운동,종로구,종로구 필운동,126.9689898,37.57687333,63445ab0adb5727d4d008405,63441c55be26106c41c6d748,,,,,
화동,종로구,종로구 화동,126.9825454,37.58072241,63445ab0adb5727d4d008406,63441c55be26106c41c6d748,,,,,
평창동,종로구,종로구 평창동,126.9574515,37.61799022,63445ab0adb5727d4d008407,63441c55be26106c41c6d748,,,,,
훈정동,종로구,종로구 훈정동,126.994306,37.57420715,63445ab0adb5727d4d008408,63441c55be26106c41c6d748,,,,,
체부동,종로구,종로구 체부동,126.9709015,37.57786012,63445ab0adb5727d4d008409,63441c55be26106c41c6d748,,,,,
청진동,종로구,종로구 청진동,126.9801709,37.57154991,63445ab0adb5727d4d00840a,63441c55be26106c41c6d748,,,,,
효제동,종로구,종로구 효제동,127.0032009,37.57335779,63445ab0adb5727d4d00840b,63441c55be26106c41c6d748,,,,,
효자동,종로구,종로구 효자동,126.9719338,37.58271304,63445ab0adb5727d4d00840c,63441c55be26106c41c6d748,,,,,
종로3가,종로구,종로구 종로3가,126.9978341,37.57068475,63445ab0adb5727d4d00840d,63441c55be26106c41c6d748,,,,,
행촌동,종로구,종로구 행촌동,126.9625874,37.57451392,63445ab0adb5727d4d00840e,63441c55be26106c41c6d748,,,,,
홍지동,종로구,종로구 홍지동,126.9563779,37.60057092,63445ab0adb5727d4d00840f,63441c55be26106c41c6d748,,,,,
혜화동,종로구,종로구 혜화동,126.9976869,37.58895081,63445ab0adb5727d4d008410,63441c55be26106c41c6d748,,,,,
광희동2가,중구,중구 광희동2가,127.0071625,37.56478999,63445ab0adb5727d4d008411,63441c55be26106c41c6d748,,,,,
남대문로5가,중구,중구 남대문로5가,126.9747284,37.5563685,63445ab0adb5727d4d008412,63441c55be26106c41c6d748,,,,,
광희동1가,중구,중구 광희동1가,127.0033632,37.56537106,63445ab0adb5727d4d008413,63441c64be26106c41c6d749,,,,,
남산동3가,중구,중구 남산동3가,126.9875333,37.55998764,63445ab0adb5727d4d008414,63441c64be26106c41c6d749,,,,,
충신동,종로구,종로구 충신동,127.0059595,37.57477282,63445ab0adb5727d4d008415,63441c64be26106c41c6d749,,,,,
남산동1가,중구,중구 남산동1가,126.9843327,37.55917989,63445ab0adb5727d4d008416,63441c64be26106c41c6d749,,,,,
남산동2가,중구,중구 남산동2가,126.9865092,37.55833199,63445ab0adb5727d4d008417,63441c64be26106c41c6d749,,,,,
남대문로1가,중구,중구 남대문로1가,126.983023,37.56760004,63445ab0adb5727d4d008418,63441c64be26106c41c6d749,,,,,
남대문로3가,중구,중구 남대문로3가,126.9802042,37.56167077,63445ab0adb5727d4d008419,63441c64be26106c41c6d749,,,,,
남대문로2가,중구,중구 남대문로2가,126.9821056,37.56386032,63445ab0adb5727d4d00841a,63441c64be26106c41c6d749,,,,,
남학동,중구,중구 남학동,126.9908493,37.56053181,63445ab0adb5727d4d00841b,63441c64be26106c41c6d749,,,,,
홍파동,종로구,종로구 홍파동,126.9637811,37.57116293,63445ab0adb5727d4d00841c,63441c64be26106c41c6d749,,,,,
명동2가,중구,중구 명동2가,126.9857909,37.56384171,63445ab0adb5727d4d00841d,63441c64be26106c41c6d749,,,,,
남창동,중구,중구 남창동,126.9771262,37.55806072,63445ab0adb5727d4d00841e,63441c64be26106c41c6d749,,,,,
묵정동,중구,중구 묵정동,127.0005333,37.56143269,63445ab0adb5727d4d00841f,63441c64be26106c41c6d749,,,,,
무교동,중구,중구 무교동,126.9790643,37.56805959,63445ab0adb5727d4d008420,63441c64be26106c41c6d749,,,,,
무학동,중구,중구 무학동,127.0151859,37.56424067,63445ab0adb5727d4d008421,63441c64be26106c41c6d749,,,,,
다동,중구,중구 다동,126.9811617,37.56784624,63445ab0adb5727d4d008422,63441c64be26106c41c6d749,,,,,
만리동1가,중구,중구 만리동1가,126.9675782,37.55588575,63445ab0adb5727d4d008423,63441c64be26106c41c6d749,,,,,
만리동2가,중구,중구 만리동2가,126.9640755,37.55428201,63445ab0adb5727d4d008424,63441c64be26106c41c6d749,,,,,
봉래동1가,중구,중구 봉래동1가,126.9726368,37.55890768,63445ab0adb5727d4d008425,63441c64be26106c41c6d749,,,,,
남대문로4가,중구,중구 남대문로4가,126.9745563,37.56069485,63445ab0adb5727d4d008426,63441c64be26106c41c6d749,,,,,
서소문동,중구,중구 서소문동,126.9735267,37.56291665,63445ab0adb5727d4d008427,63441c64be26106c41c6d749,,,,,
방산동,중구,중구 방산동,127.0030177,37.56858463,63445ab0adb5727d4d008428,63441c64be26106c41c6d749,,,,,
소공동,중구,중구 소공동,126.9733001,37.56614563,63445ab0adb5727d4d008429,63441c64be26106c41c6d749,,,,,
수하동,중구,중구 수하동,126.984805,37.56741096,63445ab0adb5727d4d00842a,63441c64be26106c41c6d749,,,,,
수표동,중구,중구 수표동,126.9894001,37.5674667,63445ab0adb5727d4d00842b,63441c64be26106c41c6d749,,,,,
봉래동2가,중구,중구 봉래동2가,126.9706895,37.55672601,63445ab0adb5727d4d00842c,63441c64be26106c41c6d749,,,,,
북창동,중구,중구 북창동,126.978261,37.56249027,63445ab0adb5727d4d00842d,63441c64be26106c41c6d749,,,,,
산림동,중구,중구 산림동,126.9961922,37.56760726,63445ab0adb5727d4d00842e,63441c64be26106c41c6d749,,,,,
명동1가,중구,중구 명동1가,126.9861109,37.56488123,63445ab0adb5727d4d00842f,63441c64be26106c41c6d749,,,,,
신당동,중구,중구 신당동,127.0151859,37.56424067,63445ab0adb5727d4d008430,63441c64be26106c41c6d749,,,,,
을지로1가,중구,중구 을지로1가,126.9803332,37.5658865,63445ab0adb5727d4d008431,63441c64be26106c41c6d749,,,,,
순화동,중구,중구 순화동,126.9707478,37.56233309,63445ab0adb5727d4d008432,63441c64be26106c41c6d749,,,,,
을지로2가,중구,중구 을지로2가,126.9853036,37.56572015,63445ab0adb5727d4d008433,63441c64be26106c41c6d749,,,,,
을지로4가,중구,중구 을지로4가,126.9956494,37.56681938,63445ab0adb5727d4d008434,63441c64be26106c41c6d749,,,,,
쌍림동,중구,중구 쌍림동,127.0045648,37.56375517,63445ab0adb5727d4d008435,63441c64be26106c41c6d749,,,,,
을지로3가,중구,중구 을지로3가,126.9907139,37.56673257,63445ab0adb5727d4d008436,63441c64be26106c41c6d749,,,,,
예관동,중구,중구 예관동,126.9982726,37.56407148,63445ab0adb5727d4d008437,63441c64be26106c41c6d749,,,,,
예장동,중구,중구 예장동,126.9898829,37.55516129,63445ab0adb5727d4d008438,63441c64be26106c41c6d749,,,,,
삼각동,중구,중구 삼각동,126.9843093,37.56794142,63445ab0adb5727d4d008439,63441c64be26106c41c6d749,,,,,
을지로6가,중구,중구 을지로6가,127.0065771,37.56749629,63445ab0adb5727d4d00843a,63441c64be26106c41c6d749,,,,,
입정동,중구,중구 입정동,126.9927627,37.56767557,63445ab0adb5727d4d00843b,63441c64be26106c41c6d749,,,,,
을지로5가,중구,중구 을지로5가,127.00076,37.56704508,63445ab0adb5727d4d00843c,63441c64be26106c41c6d749,,,,,
인현동2가,중구,중구 인현동2가,126.9960802,37.56417056,63445ab0adb5727d4d00843d,63441c64be26106c41c6d749,,,,,
장충동1가,중구,중구 장충동1가,127.0065272,37.5636387,63445ab0adb5727d4d00843e,63441c64be26106c41c6d749,,,,,
을지로7가,중구,중구 을지로7가,127.0097585,37.56642533,63445ab0adb5727d4d00843f,63441c64be26106c41c6d749,,,,,
장교동,중구,중구 장교동,126.9868258,37.56745554,63445ab0adb5727d4d008440,63441c64be26106c41c6d749,,,,,
의주로1가,중구,중구 의주로1가,126.968646,37.5636841,63445ab0adb5727d4d008441,63441c64be26106c41c6d749,,,,,
의주로2가,중구,중구 의주로2가,126.9695579,37.56066436,63445ab0adb5727d4d008442,63441c64be26106c41c6d749,,,,,
오장동,중구,중구 오장동,127.000704,37.56445824,63445ab0adb5727d4d008443,63441c64be26106c41c6d749,,,,,
저동1가,중구,중구 저동1가,126.9878802,37.56422745,63445ab0adb5727d4d008444,63441c64be26106c41c6d749,,,,,
초동,중구,중구 초동,126.992011,37.56455077,63445ab0adb5727d4d008445,63441c64be26106c41c6d749,,,,,
장충동2가,중구,중구 장충동2가,127.0059259,37.56190439,63445ab0adb5727d4d008446,63441c64be26106c41c6d749,,,,,
중림동,중구,중구 중림동,126.9640755,37.55428201,63445ab0adb5727d4d008447,63441c64be26106c41c6d749,,,,,
충무로2가,중구,중구 충무로2가,126.9877134,37.56177433,63445ab0adb5727d4d008448,63441c64be26106c41c6d749,,,,,
저동2가,중구,중구 저동2가,126.989662,37.5643056,63445ab0adb5727d4d008449,63441c64be26106c41c6d749,,,,,
충무로1가,중구,중구 충무로1가,126.9826502,37.56103229,63445ab0adb5727d4d00844a,63441c64be26106c41c6d749,,,,,
정동,중구,중구 정동,126.9733001,37.56614563,63445ab0adb5727d4d00844b,63441c64be26106c41c6d749,,,,,
주교동,중구,중구 주교동,126.9992014,37.56826863,63445ab0adb5727d4d00844c,63441c64be26106c41c6d749,,,,,
인현동1가,중구,중구 인현동1가,126.9941156,37.56455769,63445ab0adb5727d4d00844d,63441c64be26106c41c6d749,,,,,
충무로4가,중구,중구 충무로4가,126.9957563,37.5623014,63445ab0adb5727d4d00844e,63441c64be26106c41c6d749,,,,,
필동2가,중구,중구 필동2가,126.9936874,37.5609011,63445ab0adb5727d4d00844f,63441c64be26106c41c6d749,,,,,
충무로3가,중구,중구 충무로3가,126.9913569,37.56227923,63445ab0adb5727d4d008450,63441c64be26106c41c6d749,,,,,
필동1가,중구,중구 필동1가,126.9918808,37.56198283,63445ab0adb5727d4d008451,63441c64be26106c41c6d749,,,,,
황학동,중구,중구 황학동,127.0206602,37.56855608,63445ab0adb5727d4d008452,63441c64be26106c41c6d749,,,,,
충무로5가,중구,중구 충무로5가,126.999309,37.56257547,63445ab0adb5727d4d008453,63441c64be26106c41c6d749,,,,,
필동3가,중구,중구 필동3가,126.9970142,37.5605281,63445ab0adb5727d4d008454,63441c64be26106c41c6d749,,,,,
충정로1가,중구,중구 충정로1가,126.968471,37.56687882,63445ab0adb5727d4d008455,63441c64be26106c41c6d749,,,,,
태평로1가,중구,중구 태평로1가,126.9772372,37.56757145,63445ab0adb5727d4d008456,63441c64be26106c41c6d749,,,,,
주자동,중구,중구 주자동,126.9893955,37.56067892,63445ab0adb5727d4d008457,63441c64be26106c41c6d749,,,,,
상봉동,중랑구,중랑구 상봉동,127.0909576,37.60021633,63445ab0adb5727d4d008458,63441c64be26106c41c6d749,,,,,
회현동2가,중구,중구 회현동2가,126.9823486,37.56040748,63445ab0adb5727d4d008459,63441c64be26106c41c6d749,,,,,
묵동,중랑구,중랑구 묵동,127.0784998,37.61248742,63445ab0adb5727d4d00845a,63441c64be26106c41c6d749,,,,,
중화동,중랑구,중랑구 중화동,127.0793966,37.60042857,63445ab0adb5727d4d00845b,63441c64be26106c41c6d749,,,,,
신내동,중랑구,중랑구 신내동,127.093149,37.610216,63445ab0adb5727d4d00845c,63441c64be26106c41c6d749,,,,,
망우동,중랑구,중랑구 망우동,127.1070746,37.60039173,63445ab0adb5727d4d00845d,63441c78be26106c41c6d74a,,,,,
회현동1가,중구,중구 회현동1가,126.9800414,37.56045182,63445ab0adb5727d4d00845e,63441c78be26106c41c6d74a,,,,,
회현동3가,중구,중구 회현동3가,126.9840722,37.56002017,63445ab0adb5727d4d00845f,63441c78be26106c41c6d74a,,,,,
흥인동,중구,중구 흥인동,127.0168294,37.5675597,63445ab0adb5727d4d008460,63441c78be26106c41c6d74a,,,,,
태평로2가,중구,중구 태평로2가,126.9766923,37.56324338,63445ab0adb5727d4d008461,63441c78be26106c41c6d74a,,,,,
면목동,중랑구,중랑구 면목동,127.0904337,37.5819082,63445ab0adb5727d4d008462,63441c78be26106c41c6d74a,,,,,